[{"OBJECT_NAME":"SL-8 R/B","OBJECT_ID":"1988-053B","EPOCH":"2026-03-11T13:01:44.607360","MEAN_MOTION":14.38916992,"ECCENTRICITY":0.0021452,"INCLINATION":74.0458,"RA_OF_ASC_NODE":109.0502,"ARG_OF_PERICENTER":288.07,"MEAN_ANOMALY":180.7333,"EPHEMERIS_TYPE":0,"CLASSIFICATION_TYPE":"U","NORAD_CAT_ID":19257,"ELEMENT_SET_NO":999,"REV_AT_EPOCH":97686,"BSTAR":0.00010069,"MEAN_MOTION_DOT":2.84e-6,"MEAN_MOTION_DDOT":0},{"OBJECT_NAME":"COSMOS 1975","OBJECT_ID":"1988-093A","EPOCH":"2026-03-11T13:24:01.742400","MEAN_MOTION":15.28099507,"ECCENTRICITY":0.0012329,"INCLINATION":82.5183,"RA_OF_ASC_NODE":115.8093,"ARG_OF_PERICENTER":157.1148,"MEAN_ANOMALY":203.0644,"EPHEMERIS_TYPE":0,"CLASSIFICATION_TYPE":"U","NORAD_CAT_ID":19573,"ELEMENT_SET_NO":999,"REV_AT_EPOCH":1969,"BSTAR":0.00025983,"MEAN_MOTION_DOT":7.165e-5,"MEAN_MOTION_DDOT":0},{"OBJECT_NAME":"SL-14 R/B","OBJECT_ID":"1988-093B","EPOCH":"2026-03-11T21:13:41.873952","MEAN_MOTION":14.85659398,"ECCENTRICITY":0.0021617,"INCLINATION":82.5308,"RA_OF_ASC_NODE":39.9831,"ARG_OF_PERICENTER":34.5935,"MEAN_ANOMALY":24.6492,"EPHEMERIS_TYPE":0,"CLASSIFICATION_TYPE":"U","NORAD_CAT_ID":19574,"ELEMENT_SET_NO":999,"REV_AT_EPOCH":134,"BSTAR":7.5148e-5,"MEAN_MOTION_DOT":6.78e-6,"MEAN_MOTION_DDOT":0},{"OBJECT_NAME":"SL-16 R/B","OBJECT_ID":"1988-102B","EPOCH":"2026-03-11T14:24:14.469408","MEAN_MOTION":14.16153368,"ECCENTRICITY":0.0014095,"INCLINATION":71,"RA_OF_ASC_NODE":147.478,"ARG_OF_PERICENTER":358.6762,"MEAN_ANOMALY":1.4322,"EPHEMERIS_TYPE":0,"CLASSIFICATION_TYPE":"U","NORAD_CAT_ID":19650,"ELEMENT_SET_NO":999,"REV_AT_EPOCH":92716,"BSTAR":0.00017578,"MEAN_MOTION_DOT":3.0e-6,"MEAN_MOTION_DDOT":0},{"OBJECT_NAME":"INTERCOSMOS 24","OBJECT_ID":"1989-080A","EPOCH":"2026-03-11T13:11:59.143776","MEAN_MOTION":12.59561035,"ECCENTRICITY":0.1186686,"INCLINATION":82.6023,"RA_OF_ASC_NODE":103.1927,"ARG_OF_PERICENTER":288.4983,"MEAN_ANOMALY":59.0908,"EPHEMERIS_TYPE":0,"CLASSIFICATION_TYPE":"U","NORAD_CAT_ID":20261,"ELEMENT_SET_NO":999,"REV_AT_EPOCH":66703,"BSTAR":0.00024845,"MEAN_MOTION_DOT":8.34e-6,"MEAN_MOTION_DDOT":0},{"OBJECT_NAME":"SL-14 R/B","OBJECT_ID":"1989-080C","EPOCH":"2026-03-11T19:06:47.870496","MEAN_MOTION":12.50496627,"ECCENTRICITY":0.1230635,"INCLINATION":82.5975,"RA_OF_ASC_NODE":171.8343,"ARG_OF_PERICENTER":179.936,"MEAN_ANOMALY":180.2135,"EPHEMERIS_TYPE":0,"CLASSIFICATION_TYPE":"U","NORAD_CAT_ID":20262,"ELEMENT_SET_NO":999,"REV_AT_EPOCH":66041,"BSTAR":0.00018976,"MEAN_MOTION_DOT":6.47e-6,"MEAN_MOTION_DDOT":0},{"OBJECT_NAME":"DELTA 1 R/B","OBJECT_ID":"1989-089B","EPOCH":"2026-03-11T13:15:06.985152","MEAN_MOTION":14.50664655,"ECCENTRICITY":0.0070547,"INCLINATION":97.0705,"RA_OF_ASC_NODE":277.6947,"ARG_OF_PERICENTER":116.1978,"MEAN_ANOMALY":244.6496,"EPHEMERIS_TYPE":0,"CLASSIFICATION_TYPE":"U","NORAD_CAT_ID":20323,"ELEMENT_SET_NO":999,"REV_AT_EPOCH":89600,"BSTAR":0.00010635,"MEAN_MOTION_DOT":3.96e-6,"MEAN_MOTION_DDOT":0},{"OBJECT_NAME":"ARIANE 40 R/B","OBJECT_ID":"1990-005H","EPOCH":"2026-03-11T18:13:21.874944","MEAN_MOTION":14.39871979,"ECCENTRICITY":0.0009979,"INCLINATION":98.3079,"RA_OF_ASC_NODE":131.359,"ARG_OF_PERICENTER":192.2463,"MEAN_ANOMALY":167.8485,"EPHEMERIS_TYPE":0,"CLASSIFICATION_TYPE":"U","NORAD_CAT_ID":20443,"ELEMENT_SET_NO":999,"REV_AT_EPOCH":89310,"BSTAR":0.00011038,"MEAN_MOTION_DOT":3.05e-6,"MEAN_MOTION_DDOT":0},{"OBJECT_NAME":"DELTA 2 R/B(1)","OBJECT_ID":"1990-008B","EPOCH":"2026-03-11T14:52:54.543072","MEAN_MOTION":15.56257275,"ECCENTRICITY":0.0084813,"INCLINATION":35.6032,"RA_OF_ASC_NODE":162.1818,"ARG_OF_PERICENTER":276.5076,"MEAN_ANOMALY":82.601,"EPHEMERIS_TYPE":0,"CLASSIFICATION_TYPE":"U","NORAD_CAT_ID":20453,"ELEMENT_SET_NO":999,"REV_AT_EPOCH":92643,"BSTAR":0.00080101,"MEAN_MOTION_DOT":0.0006914,"MEAN_MOTION_DDOT":0},{"OBJECT_NAME":"COSMOS 2058","OBJECT_ID":"1990-010A","EPOCH":"2026-03-11T19:59:33.395424","MEAN_MOTION":15.11343082,"ECCENTRICITY":0.0009025,"INCLINATION":82.467,"RA_OF_ASC_NODE":45.3159,"ARG_OF_PERICENTER":337.5023,"MEAN_ANOMALY":22.581,"EPHEMERIS_TYPE":0,"CLASSIFICATION_TYPE":"U","NORAD_CAT_ID":20465,"ELEMENT_SET_NO":999,"REV_AT_EPOCH":94256,"BSTAR":0.00026764,"MEAN_MOTION_DOT":4.543e-5,"MEAN_MOTION_DDOT":0},{"OBJECT_NAME":"SL-14 R/B","OBJECT_ID":"1990-010B","EPOCH":"2026-03-11T18:39:56.766240","MEAN_MOTION":14.83570782,"ECCENTRICITY":0.0018444,"INCLINATION":82.4987,"RA_OF_ASC_NODE":265.4268,"ARG_OF_PERICENTER":294.9528,"MEAN_ANOMALY":64.977,"EPHEMERIS_TYPE":0,"CLASSIFICATION_TYPE":"U","NORAD_CAT_ID":20466,"ELEMENT_SET_NO":999,"REV_AT_EPOCH":92879,"BSTAR":5.6927e-5,"MEAN_MOTION_DOT":4.93e-6,"MEAN_MOTION_DDOT":0},{"OBJECT_NAME":"SL-14 R/B","OBJECT_ID":"1990-018B","EPOCH":"2026-03-11T20:45:44.998560","MEAN_MOTION":14.82147386,"ECCENTRICITY":0.0017654,"INCLINATION":82.5207,"RA_OF_ASC_NODE":221.056,"ARG_OF_PERICENTER":85.4792,"MEAN_ANOMALY":274.8438,"EPHEMERIS_TYPE":0,"CLASSIFICATION_TYPE":"U","NORAD_CAT_ID":20511,"ELEMENT_SET_NO":999,"REV_AT_EPOCH":92290,"BSTAR":7.0923e-5,"MEAN_MOTION_DOT":5.9e-6,"MEAN_MOTION_DDOT":0},{"OBJECT_NAME":"HST","OBJECT_ID":"1990-037B","EPOCH":"2026-03-11T05:56:45.946464","MEAN_MOTION":15.29511346,"ECCENTRICITY":0.0001841,"INCLINATION":28.4722,"RA_OF_ASC_NODE":29.37,"ARG_OF_PERICENTER":140.8013,"MEAN_ANOMALY":219.2716,"EPHEMERIS_TYPE":0,"CLASSIFICATION_TYPE":"U","NORAD_CAT_ID":20580,"ELEMENT_SET_NO":999,"REV_AT_EPOCH":77355,"BSTAR":0.00029286,"MEAN_MOTION_DOT":8.856e-5,"MEAN_MOTION_DDOT":0},{"OBJECT_NAME":"SL-16 R/B","OBJECT_ID":"1990-046B","EPOCH":"2026-03-11T19:37:50.458368","MEAN_MOTION":14.1501169,"ECCENTRICITY":0.0016215,"INCLINATION":70.9983,"RA_OF_ASC_NODE":293.4449,"ARG_OF_PERICENTER":296.759,"MEAN_ANOMALY":63.1873,"EPHEMERIS_TYPE":0,"CLASSIFICATION_TYPE":"U","NORAD_CAT_ID":20625,"ELEMENT_SET_NO":999,"REV_AT_EPOCH":84869,"BSTAR":-7.2637e-5,"MEAN_MOTION_DOT":-1.89e-6,"MEAN_MOTION_DDOT":0},{"OBJECT_NAME":"COSMOS 2084","OBJECT_ID":"1990-055A","EPOCH":"2026-03-11T20:19:59.154816","MEAN_MOTION":15.05665442,"ECCENTRICITY":0.0016759,"INCLINATION":62.7919,"RA_OF_ASC_NODE":328.2199,"ARG_OF_PERICENTER":190.601,"MEAN_ANOMALY":169.474,"EPHEMERIS_TYPE":0,"CLASSIFICATION_TYPE":"U","NORAD_CAT_ID":20663,"ELEMENT_SET_NO":999,"REV_AT_EPOCH":93664,"BSTAR":0.00019077,"MEAN_MOTION_DOT":2.574e-5,"MEAN_MOTION_DDOT":0},{"OBJECT_NAME":"SL-6 R/B(2)","OBJECT_ID":"1990-055D","EPOCH":"2026-03-11T19:59:14.397792","MEAN_MOTION":15.03605998,"ECCENTRICITY":0.0025148,"INCLINATION":62.7825,"RA_OF_ASC_NODE":246.5622,"ARG_OF_PERICENTER":347.5462,"MEAN_ANOMALY":12.5013,"EPHEMERIS_TYPE":0,"CLASSIFICATION_TYPE":"U","NORAD_CAT_ID":20666,"ELEMENT_SET_NO":999,"REV_AT_EPOCH":93851,"BSTAR":0.00018335,"MEAN_MOTION_DOT":2.334e-5,"MEAN_MOTION_DDOT":0},{"OBJECT_NAME":"SL-8 R/B","OBJECT_ID":"1990-078B","EPOCH":"2026-03-11T20:38:42.979488","MEAN_MOTION":14.89141367,"ECCENTRICITY":0.0361763,"INCLINATION":82.9006,"RA_OF_ASC_NODE":249.3584,"ARG_OF_PERICENTER":6.6999,"MEAN_ANOMALY":353.8864,"EPHEMERIS_TYPE":0,"CLASSIFICATION_TYPE":"U","NORAD_CAT_ID":20775,"ELEMENT_SET_NO":999,"REV_AT_EPOCH":80962,"BSTAR":0.00048311,"MEAN_MOTION_DOT":0.000164,"MEAN_MOTION_DDOT":0}]
